STARLINK-2364
1 17904C 21021AW  21326.17256324  .00003957  00000-0  26511-3 0  3260
2 17904  53.0542 102.9580 0001378  94.7814 196.3312 15.06398414    19
